NORAD_CAT_ID,OBJECT_NAME,OBJECT_TYPE,EPOCH,MEAN_MOTION,ECCENTRICITY,INCLINATION,RA_OF_ASC_NODE,ARG_OF_PERICENTER,MEAN_ANOMALY,BSTAR,MEAN_MOTION_DOT,MEAN_MOTION_DDOT,TLE_LINE0,TLE_LINE1,TLE_LINE2,SEMIMAJOR_AXIS,PERIOD,APOGEE,PERIGEE,DECAYED
49167.0,STARLINK-3054,PAYLOAD,2022-12-31 10:29:46,14.98345467,0.0003216,70.0016,349.9453,258.6346,101.4452,0.00028677,3.332e-05,0.0,0 STARLINK-3054,1 49167U 21082AP  22365.43734111  .00003332  00000-0  28677-3 0  9996,2 49167  70.0016 349.9453 0003216 258.6346 101.4452 14.98345467 72799,6950.145,96.106,574.245,569.775,0.0
49167.0,STARLINK-3054,PAYLOAD,2022-12-31 16:54:18,14.98341196,0.0003137,70.0016,349.2716,258.9411,101.1395,0.00018834,2.156e-05,0.0,0 STARLINK-3054,1 49167U 21082AP  22365.70438215  .00002156  00000-0  18834-3 0  9999,2 49167  70.0016 349.2716 0003137 258.9411 101.1395 14.98341196 72824,6950.158,96.106,574.2040000000002,569.8430000000002,0.0
49167.0,STARLINK-3054,PAYLOAD,2023-01-01 05:43:23,14.98329828,0.0003041,70.0018,347.9251,258.7851,101.2966,-0.00012308,-1.561e-05,0.0,0 STARLINK-3054,1 49167U 21082AP  23001.23846521 -.00001561  00000-0 -12308-3 0  9999,2 49167  70.0018 347.9251 0003041 258.7851 101.2966 14.98329828 72918,6950.193,96.107,574.172,569.945,0.0
49167.0,STARLINK-3054,PAYLOAD,2023-01-01 08:55:39,14.98329884,0.0003055,70.0014,347.5885,259.5694,100.5121,-0.00013175,-1.665e-05,0.0,0 STARLINK-3054,1 49167U 21082AP  23001.37198467 -.00001665  00000-0 -13175-3 0  9991,2 49167  70.0014 347.5885 0003055 259.5694 100.5121 14.98329884 72920,6950.193,96.107,574.182,569.935,0.0
49167.0,STARLINK-3054,PAYLOAD,2023-01-02 05:45:25,14.98320935,0.000296,70.0016,345.4004,258.137,101.9457,-0.0001471,-1.847e-05,0.0,0 STARLINK-3054,1 49167U 21082AP  23002.23987441 -.00001847  00000-0 -14710-3 0  9993,2 49167  70.0016 345.4004 0002960 258.1370 101.9457 14.98320935 73063,6950.221,96.108,574.143,570.029,0.0
49167.0,STARLINK-3054,PAYLOAD,2023-01-02 08:57:41,14.9832051,0.0002918999999999,70.0015,345.0636,258.3549,101.7282,-0.00013979,-1.76e-05,0.0,0 STARLINK-3054,1 49167U 21082AP  23002.37339553 -.00001760  00000-0 -13979-3 0  9993,2 49167  70.0015 345.0636 0002919 258.3549 101.7282 14.98320510 73077,6950.222,96.108,574.116,570.058,0.0
49167.0,STARLINK-3054,PAYLOAD,2023-01-02 21:46:46,14.98324037,0.0002652,70.0014,343.7169,260.2397,99.8462,9.3358e-05,1.021e-05,0.0,0 STARLINK-3054,1 49167U 21082AP  23002.90747816  .00001021  00000-0  93358-4 0  9995,2 49167  70.0014 343.7169 0002652 260.2397  99.8462 14.98324037 73153,6950.2109999999975,96.107,573.92,570.2330000000002,0.0
49167.0,STARLINK-3054,PAYLOAD,2023-01-03 08:59:45,14.982802,0.0002675,70.0014,342.5387,257.7877,102.2983,0.0022806,0.00027189,0.0,0 STARLINK-3054,1 49167U 21082AP  23003.37483041  .00027189  00000-0  22806-2 0  9995,2 49167  70.0014 342.5387 0002675 257.7877 102.2983 14.98280200 73230,6950.347,96.11,574.071,570.3530000000002,0.0
49167.0,STARLINK-3054,PAYLOAD,2023-01-03 15:24:14,14.98341585,0.0003156,70.0015,341.8653,261.7997,98.2804,4.3955000000000005e-06,-4.1e-07,0.0,0 STARLINK-3054,1 49167U 21082AP  23003.64183007 -.00000041  00000-0  43955-5 0  9994,2 49167  70.0015 341.8653 0003156 261.7997  98.2804 14.98341585 73276,6950.156999999997,96.106,574.216,569.8290000000002,0.0
49167.0,STARLINK-3054,PAYLOAD,2023-01-04 01:01:02,14.98339101,0.00031,70.0013,340.8553,258.6048,101.4763,0.00025069,2.9e-05,0.0,0 STARLINK-3054,1 49167U 21082AP  23004.04239402  .00002900  00000-0  25069-3 0  9999,2 49167  70.0013 340.8553 0003100 258.6048 101.4763 14.98339101 73332,6950.165,96.106,574.184,569.875,0.0
49167.0,STARLINK-3054,PAYLOAD,2023-01-04 07:25:35,14.9833117,0.0003243999999999,70.0012,340.182,258.0015,102.0781,0.00030336,3.529e-05,0.0,0 STARLINK-3054,1 49167U 21082AP  23004.30943915  .00003529  00000-0  30336-3 0  9990,2 49167  70.0012 340.1820 0003244 258.0015 102.0781 14.98331170 73377,6950.189,96.107,574.309,569.8,0.0
49167.0,STARLINK-3054,PAYLOAD,2023-01-05 04:15:19,14.98350898,0.0003302,70.0017,337.9937,257.7205,102.3585,0.0004484,5.264e-05,0.0,0 STARLINK-3054,1 49167U 21082AP  23005.17730549  .00005264  00000-0  44840-3 0  9996,2 49167  70.0017 337.9937 0003302 257.7205 102.3585 14.98350898 73505,6950.128000000002,96.106,574.288,569.698,0.0
49167.0,STARLINK-3054,PAYLOAD,2023-01-05 07:27:35,14.9835135,0.0003447,70.0015,337.6574,259.9894,100.0876,0.00040938,4.798e-05,0.0,0 STARLINK-3054,1 49167U 21082AP  23005.31082358  .00004798  00000-0  40938-3 0  9995,2 49167  70.0015 337.6574 0003447 259.9894 100.0876 14.98351350 73518,6950.127,96.106,574.388,569.596,0.0
49167.0,STARLINK-3054,PAYLOAD,2023-01-06 07:29:36,14.98332701,0.0003363,70.0011,335.1322,258.863,101.2151,2.2918e-06,-6.6e-07,0.0,0 STARLINK-3054,1 49167U 21082AP  23006.31222511 -.00000066  00000-0  22918-5 0  9998,2 49167  70.0011 335.1322 0003363 258.8630 101.2151 14.98332701 73676,6950.185,96.107,574.387,569.712,0.0
49167.0,STARLINK-3054,PAYLOAD,2023-01-06 21:54:48,14.98339009,0.0003339,70.0014,333.6173,260.2688,99.8094,-0.00010106,-1.299e-05,0.0,0 STARLINK-3054,1 49167U 21082AP  23006.91305933 -.00001299  00000-0 -10106-3 0  9998,2 49167  70.0014 333.6173 0003339 260.2688  99.8094 14.98339009 73754,6950.165,96.106,574.351,569.7090000000002,0.0
49167.0,STARLINK-3054,PAYLOAD,2023-01-07 04:19:20,14.98340238,0.0003218,70.0005,332.9443,256.0862,103.9939,-5.0524e-05,-6.96e-06,0.0,0 STARLINK-3054,1 49167U 21082AP  23007.18010012 -.00000696  00000-0 -50524-4 0  9998,2 49167  70.0005 332.9443 0003218 256.0862 103.9939 14.98340238 73794,6950.161,96.106,574.263,569.79,0.0
49167.0,STARLINK-3054,PAYLOAD,2023-01-07 09:07:44,14.98338669,0.0003335,70.0001,332.4394,258.8434,101.235,-5.2864e-05,-7.24e-06,0.0,0 STARLINK-3054,1 49167U 21082AP  23007.38038182 -.00000724  00000-0 -52864-4 0  9999,2 49167  70.0001 332.4394 0003335 258.8434 101.2350 14.98338669 73833,6950.166,96.106,574.349,569.7130000000002,0.0
49167.0,STARLINK-3054,PAYLOAD,2023-01-08 09:09:46,14.98325689,0.0003441,70.001,329.9154,259.4927,100.5844,7.3598e-05,7.85e-06,0.0,0 STARLINK-3054,1 49167U 21082AP  23008.38178856  .00000785  00000-0  73598-4 0  9995,2 49167  70.0010 329.9154 0003441 259.4927 100.5844 14.98325689 73984,6950.206,96.107,574.4630000000002,569.68,0.0
49167.0,STARLINK-3054,PAYLOAD,2023-01-09 14:00:11,14.98329175,0.0003027,70.0011,326.8857,257.6123,102.4698,0.00016336,1.857e-05,0.0,0 STARLINK-3054,1 49167U 21082AP  23009.58346907  .00001857  00000-0  16336-3 0  9999,2 49167  70.0011 326.8857 0003027 257.6123 102.4698 14.98329175 74162,6950.195,96.107,574.164,569.957,0.0
49167.0,STARLINK-3054,PAYLOAD,2023-01-10 04:25:23,14.98345243,0.0003473,70.0007,325.3708,254.5416,105.536,-2.8584e-05,-4.34e-06,0.0,0 STARLINK-3054,1 49167U 21082AP  23010.18429852 -.00000434  00000-0 -28584-4 0  9999,2 49167  70.0007 325.3708 0003473 254.5416 105.5360 14.98345243 74256,6950.146,96.106,574.425,569.597,0.0
49167.0,STARLINK-3054,PAYLOAD,2023-01-10 06:01:32,14.98329548,0.0003323,69.9999,325.2027,257.0005,103.0783,8.3488e-05,9.03e-06,0.0,0 STARLINK-3054,1 49167U 21082AP  23010.25106556  .00000903  00000-0  83488-4 0  9993,2 49167  69.9999 325.2027 0003323 257.0005 103.0783 14.98329548 74265,6950.194,96.107,574.369,569.75,0.0
49167.0,STARLINK-3054,PAYLOAD,2023-01-10 14:02:12,14.98332695,0.00031,69.9998,324.3602,255.8279,104.2536,5.327e-05,5.43e-06,0.0,0 STARLINK-3054,1 49167U 21082AP  23010.58486572  .00000543  00000-0  53270-4 0  9994,2 49167  69.9998 324.3602 0003100 255.8279 104.2536 14.98332695 74306,6950.185,96.107,574.2040000000002,569.895,0.0
49167.0,STARLINK-3054,PAYLOAD,2023-01-10 20:26:44,14.98333392,0.000351,70.0006,323.6867,254.3121,105.7651,8.2184e-05,8.88e-06,0.0,0 STARLINK-3054,1 49167U 21082AP  23010.85190324  .00000888  00000-0  82184-4 0  9999,2 49167  70.0006 323.6867 0003510 254.3121 105.7651 14.98333392 74342,6950.182,96.107,574.487,569.6080000000002,0.0
49167.0,STARLINK-3054,PAYLOAD,2023-01-11 06:03:32,14.98327238,0.0002727,70.0017,322.6769,255.126,104.9597,0.00024385,2.818e-05,0.0,0 STARLINK-3054,1 49167U 21082AP  23011.25245986  .00002818  00000-0  24385-3 0  9992,2 49167  70.0017 322.6769 0002727 255.1260 104.9597 14.98327238 74416,6950.201,96.107,573.962,570.1709999999998,0.0
49167.0,STARLINK-3054,PAYLOAD,2023-01-11 14:04:13,14.98321479,0.0002386,70.0026,321.8356,251.5918,108.4982,0.00020192,2.317e-05,0.0,0 STARLINK-3054,1 49167U 21082AP  23011.58626580  .00002317  00000-0  20192-3 0  9997,2 49167  70.0026 321.8356 0002386 251.5918 108.4982 14.98321479 74452,6950.219,96.108,573.743,570.4259999999998,0.0
49167.0,STARLINK-3054,PAYLOAD,2023-01-11 20:28:45,14.98327751,0.0003078,70.001,321.1609,253.4796,106.6025,0.00010702,1.184e-05,0.0,0 STARLINK-3054,1 49167U 21082AP  23011.85330425  .00001184  00000-0  10702-3 0  9994,2 49167  70.0010 321.1609 0003078 253.4796 106.6025 14.98327751 74494,6950.2,96.107,574.2040000000002,569.9259999999998,0.0
49167.0,STARLINK-3054,PAYLOAD,2023-01-12 14:06:14,14.98321499,0.0001938,70.0042,319.3108,284.192,75.9024,0.0001073,1.187e-05,0.0,0 STARLINK-3054,1 49167U 21082AP  23012.58767317  .00001187  00000-0  10730-3 0  9993,2 49167  70.0042 319.3108 0001938 284.1920  75.9024 14.98321499 74619,6950.219,96.108,573.431,570.737,0.0
49167.0,STARLINK-3054,PAYLOAD,2023-01-12 22:06:55,14.98324193,0.0002561,70.0011,318.4666,257.4505,102.6368,-8.8471e-05,-1.148e-05,0.0,0 STARLINK-3054,1 49167U 21082AP  23012.92147408 -.00001148  00000-0 -88471-4 0  9991,2 49167  70.0011 318.4666 0002561 257.4505 102.6368 14.98324193 74656,6950.210999999998,96.107,573.856,570.2959999999998,0.0
49167.0,STARLINK-3054,PAYLOAD,2023-01-13 06:07:36,14.98318523,0.0002795,70.0017,317.627,261.8522,98.232,-0.0001079,-1.3800000000000002e-05,0.0,0 STARLINK-3054,1 49167U 21082AP  23013.25527994 -.00001380  00000-0 -10790-3 0  9996,2 49167  70.0017 317.6270 0002795 261.8522  98.2320 14.98318523 74705,6950.228,96.108,574.036,570.151,0.0
